SL-14 R/B               
1 20262U 89080C   25275.92836716  .00000476  00000+0  13920-3 0  9994
2 20262  82.5875 274.4812 1230455 185.3182 173.3759 12.50354863640434
DELTA 1 R/B             
1 20323U 89089B   25275.65691886  .00001001  00000+0  25747-3 0  9993
2 20323  97.0853 143.1300 0067556 261.8964  97.4566 14.50485867872823
ARIANE 40 R/B           
1 20443U 90005H   25275.71382266  .00000892  00000+0  29834-3 0  9990
2 20443  98.3345 335.8636 0009306 325.8649  34.1941 14.39718471870075
DELTA 2 R/B(1)          
1 20453U 90008B   25275.85674029  .00047129  00000+0  89402-3 0  9991
2 20453  35.6079 116.0881 0123912 254.0884 104.6161 15.39192632901684
COSMOS 2058             
1 20465U 90010A   25275.85572901  .00008440  00000+0  52142-3 0  9997
2 20465  82.4752 202.7062 0009901 147.8599 212.3236 15.09705007918414
SL-14 R/B               
1 20466U 90010B   25275.85207426  .00001294  00000+0  15446-3 0  9991
2 20466  82.5018  55.6009 0021370  99.5142 260.8489 14.83368001905085
SL-14 R/B               
1 20511U 90018B   25275.71806095  .00001281  00000+0  15854-3 0  9991
2 20511  82.5253  10.7362 0015049 250.2273 109.7319 14.81949288899184
HST                     
1 20580U 90037B   25275.63604022  .00014602  00000+0  53183-3 0  9993
2 20580  28.4692  35.9607 0002420 158.0119 202.0580 15.26677300749117
SL-16 R/B               
1 20625U 90046B   25275.41669301 -.00000121  00000+0 -37964-4 0  9993
2 20625  70.9974 270.3051 0014614 195.1456 164.9231 14.14982912826001
COSMOS 2084             
1 20663U 90055A   25275.85769169  .00005775  00000+0  41766-3 0  9998
2 20663  62.7902 153.3933 0043986 166.2476 193.9834 15.04342552912565
SL-6 R/B(2)             
1 20666U 90055D   25275.70299145  .00006346  00000+0  48841-3 0  9993
2 20666  62.7833  70.6887 0011992 241.1501 118.8394 15.02549757914444
SL-8 R/B                
1 20775U 90078B   25275.80111293  .00050649  00000+0  16150-2 0  9999
2 20775  82.9085  32.5861 0388145 182.5322 177.3946 14.82067258785855
SL-8 R/B                
1 21088U 91006B   25275.57752461  .00000065  00000+0  49296-4 0  9997
2 21088  82.9384 287.6645 0023802 116.6034   0.2726 13.77471134742300
OKEAN-3                 
1 21397U 91039A   25275.68238294  .00007268  00000+0  53076-3 0  9993
2 21397  82.5165 129.7925 0015144 143.7779 216.4476 15.03439195841282
COSMOS 2151             
1 21422U 91042A   25275.95501166  .00004921  00000+0  40082-3 0  9993
2 21422  82.4955 235.6840 0010953 226.4314 133.6001 14.99276121839550
SL-14 R/B               
1 21423U 91042B   25275.73835763  .00001180  00000+0  14668-3 0  9998
2 21423  82.4969   8.2957 0018094  44.0523 316.2129 14.81647522829680
ERS-1                   
1 21574U 91050A   25275.96865820  .00000860  00000+0  29040-3 0  9990
2 21574  98.7946 285.2348 0031176 311.6036  48.2480 14.39283658793042
ARIANE 40 R/B           
1 21610U 91050F   25275.70104229  .00001003  00000+0  31377-3 0  9998
2 21610  98.2276 328.6569 0003189 170.4911 189.6340 14.42725130796214
INTERCOSMOS 25          
1 21819U 91086A   25275.62554836  .00003773  00000+0  73527-3 0  9991
2 21819  82.6056  45.5311 1489303  97.5738 279.6435 12.11449832477544
SL-8 R/B                
1 21876U 92008B   25275.86315133  .00000120  00000+0  10737-3 0  9997
2 21876  82.9305  25.1479 0034051 213.6378 263.2750 13.75941335687719
SL-8 R/B                
1 21938U 92020B   25275.91912022  .00000051  00000+0  37384-4 0  9997
2 21938  82.9259 270.9198 0029552  21.0395  41.6921 13.75518571679445
USA 81                  
1 21949U 92023A   25275.77614948  .00000563  00000+0  20160-3 0  9993
2 21949  85.0088 222.4880 0002182 109.3025 250.8403 14.32286470 72182
COSMOS 2219             
1 22219U 92076A   25275.63129600 -.00000140  00000+0 -48754-4 0  9996
2 22219  71.0627 348.4777 0015536  79.8697 280.4177 14.14047738696039
SL-16 R/B               
1 22220U 92076B   25275.90726006 -.00000111  00000+0 -31358-4 0  9991
2 22220  70.9999 160.7354 0013967 327.0202 109.0477 14.16823230699485
COSMOS 2221             
1 22236U 92080A   25275.89655757  .00004885  00000+0  44017-3 0  9990
2 22236  82.5018  70.0964 0014739   8.5906 351.5565 14.95317427757203
SL-16 R/B               
1 22285U 92093B   25275.57793022  .00000202  00000+0  12811-3 0  9997
2 22285  71.0231 336.1797 0005146 214.0761 146.0032 14.15411399690782
COSMOS 2228             
1 22286U 92094A   25275.88067061  .00005634  00000+0  49507-3 0  9996
2 22286  82.5207  28.2956 0019556 112.1169 248.2132 14.96251129752450
SL-16 R/B               
1 22566U 93016B   25275.88530627 -.00000054  00000+0 -31917-5 0  9996
2 22566  71.0077 186.6111 0011386 213.8933 146.1463 14.15269262679844
COSMOS 2242             
1 22626U 93024A   25275.86433805  .00005689  00000+0  50801-3 0  9998
2 22626  82.5178  57.5472 0017899 114.2606 246.0488 14.95648106756795
SL-16 R/B               
1 22803U 93059B   25275.65554894  .00000340  00000+0  19197-3 0  9994
2 22803  70.9927 344.3842 0014824  90.9931 269.2891 14.17195408657149
ARIANE 40 R/B           
1 22830U 93061H   25275.80543390  .00000699  00000+0  27257-3 0  9996
2 22830  98.5163 342.5968 0011292  37.3332 322.8635 14.32727753671499
COSMOS 2278             
1 23087U 94023A   25275.88097896  .00000380  00000+0  22313-3 0  9998
2 23087  71.0533 145.2540 0010939 270.3350  89.6519 14.14329700622496
SL-16 R/B               
1 23088U 94023B   25275.71710503 -.00000130  00000+0 -42587-4 0  9999
2 23088  71.0014  42.6339 0003952 216.6853 143.4000 14.14984372623740
SL-16 R/B               
1 23343U 94074B   25275.65838654  .00001327  00000+0  18549-3 0  9997
2 23343  97.7305 307.7499 0007181  27.7768  85.9798 14.79168883663883
SL-16 R/B               
1 23405U 94077B   25275.54836080  .00000163  00000+0  10807-3 0  9994
2 23405  70.9834 325.1842 0001878 346.2512  13.8559 14.15531904593853
ARIANE 40+ R/B          
1 23561U 95021B   25275.71620731  .00000889  00000+0  29831-3 0  9992
2 23561  98.4734 344.1353 0005667 251.6319 220.9984 14.39614064596516
SL-16 R/B               
1 23705U 95058B   25275.90085179  .00000327  00000+0  19179-3 0  9995
2 23705  71.0210 151.5269 0012807 350.4066   9.6810 14.15467801545523
SL-16 R/B               
1 24298U 96051B   25275.94966488 -.00000024  00000+0  13677-4 0  9995
2 24298  70.7603 149.1157 0015202 356.6125   3.4889 14.12393780499378
ORBVIEW 2 (SEASTAR)     
1 24883U 97037A   25275.95275313  .00000804  00000+0  29672-3 0  9997
2 24883  98.8413  71.2685 0002730 144.0917 216.0451 14.35335015485845
SL-16 R/B               
1 25400U 98043G   25275.86133569  .00000232  00000+0  11597-3 0  9999
2 25400  98.7986 223.3303 0010884 109.8619 250.3735 14.25998599416491
SL-16 R/B               
1 25407U 98045B   25275.84789221  .00000325  00000+0  18839-3 0  9997
2 25407  71.0107 153.5073 0009674 266.9365  93.0652 14.16156743404756
ISS (ZARYA)             
1 25544U 98067A   25275.85403526  .00013541  00000+0  24800-3 0  9994
2 25544  51.6327 133.4364 0001036 189.8771 170.2197 15.49630613531869
CZ-4B R/B               
1 25732U 99025C   25275.71495773  .00000258  00000+0  14538-3 0  9996
2 25732  98.6885 318.5407 0038199  79.6369  31.1574 14.18218341365775
OKEAN-O                 
1 25860U 99039A   25275.73633350  .00002059  00000+0  27920-3 0  9990
2 25860  97.9714 332.0173 0001917 102.5391 257.6036 14.79985572411022
SL-16 R/B               
1 25861U 99039B   25275.93547376  .00001571  00000+0  20726-3 0  9990
2 25861  98.0236 330.0444 0015930  52.7120 307.5542 14.81436510413507
DELTA 2 R/B             
1 25876U 99041E   25275.54079125  .00002099  00000+0  37633-3 0  9999
2 25876  51.7638 212.5745 0504735 241.8194 113.0884 14.11171880340698
HELIOS 1B               
1 25977U 99064A   25275.68067661  .00004409  00000+0  50036-3 0  9992
2 25977  98.1786 168.2561 0001091 131.1043 229.0267 14.86860943661778
TERRA                   
1 25994U 99068A   25275.92134749  .00001238  00000+0  26239-3 0  9999
2 25994  97.9860 330.1628 0001743   1.0007 103.9969 14.60831269372049
SL-16 R/B               
1 26070U 00006B   25275.82246786  .00000405  00000+0  23033-3 0  9997
2 26070  71.0016  69.7656 0014706  57.7922 302.4625 14.15791784326214
TITAN 4B R/B            
1 26474U 00047B   25275.92381476  .00006869  00000+0  44327-3 0  9996
2 26474  67.9891 123.6222 0046423 223.0788 136.6724 15.07950932369112
ENVISAT                 
1 27386U 02009A   25275.91224994  .00000376  00000+0  13577-3 0  9999
2 27386  98.3466 228.4953 0001299  89.7399 336.2693 14.38959429236482
IDEFIX & ARIANE 42P R/B 
1 27422U 02021B   25275.81858852  .00000908  00000+0  36251-3 0  9994
2 27422  98.5665 211.4750 0010787 296.0039  64.0033 14.30872334221444
AQUA                    
1 27424U 02022A   25275.91333073  .00002877  00000+0  58929-3 0  9994
2 27424  98.3906 235.6981 0002063  76.0553  17.5464 14.61553275245688
CZ-4B R/B               
1 27432U 02024C   25275.70792436  .00000183  00000+0  11714-3 0  9993
2 27432  98.9116 324.6861 0051161 111.2259 358.1254 14.14507179206903
MIDORI II (ADEOS-II)    
1 27597U 02056A   25275.86482170  .00000769  00000+0  32081-3 0  9998
2 27597  98.7500 228.4970 0002185  90.4181 269.7251 14.29130959187755
H-2A R/B                
1 27601U 02056E   25275.91093944  .00000832  00000+0  30745-3 0  9993
2 27601  98.2935 237.5324 0069071 272.0098 150.5984 14.33600663191501
CZ-4B R/B               
1 28059U 03049C   25275.96332164  .00001245  00000+0  29776-3 0  9990
2 28059  98.6724 259.8741 0048266 354.6169   5.4502 14.54800970163664
CZ-2C R/B               
1 28222U 04012C   25275.70708271  .00053131  00000+0  95150-3 0  9991
2 28222  97.7544 322.7609 0021124 165.2755 194.9115 15.49548509179708
SL-16 R/B               
1 28353U 04021B   25275.90784219  .00000441  00000+0  25436-3 0  9990
2 28353  71.0010 203.6022 0007151 276.2906  83.7402 14.14568993100525
